satname,norad_id,inclination_deg,eccentricity,mean_motion_rev_per_day,perigee_km,apogee_km,l1,l2
STARLINK-1300,45374,53.0559,0.0001072,15.06400716,546.4669663721033,547.9517606324371,1 45374U 20019Q   25296.62302910  .00001714  00000+0  13389-3 0  9991,2 45374  53.0559  61.9324 0001072  95.2822 264.8290 15.06400716309075
STARLINK-1302,45375,53.0544,0.0001385,15.06390829,546.2805012067884,548.198830543236,1 45375U 20019R   25296.63776338  .00002838  00000+0  20941-3 0  9992,2 45375  53.0544  61.8686 0001385  88.5295 271.5852 15.06390829309078
STARLINK-1304,45376,53.0552,0.0001112,15.06401128,546.43800240769,547.978199158104,1 45376U 20019S   25296.65619707  .00000586  00000+0  58230-4 0  9992,2 45376  53.0552  61.7838 0001112  94.5771 265.5345 15.06401128309075
STARLINK-1305,45377,53.0531,0.0001116,15.30876472,472.4313810125341,473.9605985358521,1 45377U 20019T   25296.66671295  .00132462  00000+0  43138-2 0  9992,2 45377  53.0531  60.7995 0001116  76.0066 323.9838 15.30876472  5650
STARLINK-1319,45379,53.0561,0.0001188,15.06427527,546.3044715464657,547.9499143187068,1 45379U 20019V   25296.67460889  .00001806  00000+0  14001-3 0  9995,2 45379  53.0561  61.7051 0001188  96.2671 263.8453 15.06427527309089
STARLINK-1266,45383,53.0549,0.000113,15.06407898,546.4047901598024,547.969913463312,1 45383U 20019Z   25296.47742237  .00004059  00000+0  29117-3 0  9995,2 45383  53.0549  42.5895 0001130  93.3024 266.8095 15.06407898309321
STARLINK-1267,45384,53.0552,0.0001244,15.06419043,546.2916884006054,548.0147006009984,1 45384U 20019AA  25296.59545307  .00011344  00000+0  77880-3 0  9993,2 45384  53.0552  42.7155 0001244  75.0239 285.0888 15.06419043309337
STARLINK-1272,45386,53.0533,0.0001533,15.26862766,484.14544412881514,486.2497425151287,1 45386U 20019AC  25296.66671295  .01694709  00000+0  57199-1 0  9991,2 45386  53.0533  41.0078 0001533  69.9701 295.4550 15.26862766  5791
STARLINK-1274,45387,53.0368,0.000423,15.28257105,478.12092429498443,483.9237731039839,1 45387U 20019AD  25296.54721914  .00062323  00000+0  22271-2 0  9997,2 45387  53.0368  28.7838 0004230 203.5447 156.5358 15.28257105309522
STARLINK-1280,45388,53.0582,9.55e-05,15.30148115,474.71548313670155,476.02450297237465,1 45388U 20019AE  25296.66671295  .01119997  00000+0  35005-1 0  9996,2 45388  53.0582  60.7604 0000955  74.8023 107.9153 15.30148115  5807
STARLINK-1283,45389,53.0555,0.000116,15.29166938,477.5059958842794,479.09668957979375,1 45389U 20019AF  25296.55923159  .00031498  00000+0  11055-2 0  9992,2 45389  53.0555  39.9733 0001160  35.5415 324.5661 15.29166938309378
STARLINK-1284,45390,53.0563,0.0001466,15.06410197,546.1650542611796,548.1955572952338,1 45390U 20019AG  25296.48111064  .00005974  00000+0  41949-3 0  9996,2 45390  53.0563  42.5736 0001466  85.4211 274.6946 15.06410197309329
STARLINK-1292,45394,53.0463,0.0008171,15.89287108,298.8202237987716,309.74063035810195,1 45394U 20019AL  25296.66671295  .00335658  52304-4  11427-2 0  9998,2 45394  53.0463 356.7062 0008171 346.1429 328.5864 15.89287108  6004
STARLINK-1297,45395,53.0549,0.0001499,15.06373459,546.254781532487,548.3310254175485,1 45395U 20019AM  25296.58434948 -.00003002  00000+0 -18285-3 0  9990,2 45395  53.0549  42.1094 0001499  87.1874 272.9287 15.06373459308520
STARLINK-1307,45397,53.0566,0.0001453,15.06420414,546.142748620241,548.1552367297118,1 45397U 20019AP  25296.57692917  .00002328  00000+0  17505-3 0  9995,2 45397  53.0566  42.1393 0001453  90.2480 269.8676 15.06420414309163
STARLINK-1312,45398,53.0444,0.0005224,15.92112177,292.88639864972356,299.85992686777354,1 45398U 20019AQ  25296.66671295  .00474015  98226-4  13954-2 0  9993,2 45398  53.0444 356.1241 0005224 339.3405 194.4570 15.92112177  5992
STARLINK-1255,45399,53.051,9.15e-05,15.27573041,482.4421334337976,483.6977343026956,1 45399U 20019AR  25296.66671295  .01947532  00000+0  64489-1 0  9990,2 45399  53.0510  30.5681 0000915  70.9312 115.2981 15.27573041  5632
STARLINK-1259,45403,53.0392,0.0004475,16.14044729,232.81098980305887,238.73043720664555,1 45403U 20019AV  25296.64446163  .01064009  74735-3  84417-3 0  9992,2 45403  53.0392 334.6786 0004475  32.4298 327.7011 16.14044729310097
STARLINK-1260,45404,53.0569,0.0001486,15.06406908,546.1612823445612,548.2194896436786,1 45404U 20019AW  25296.64421297  .00001312  00000+0  10696-3 0  9999,2 45404  53.0569  31.8377 0001486 101.6118 258.5038 15.06406908309207
STARLINK-1263,45405,53.0558,0.0001337,15.06415194,546.2390780318374,548.0909037842057,1 45405U 20019AX  25296.56313733  .00010975  00000+0  75424-3 0  9991,2 45405  53.0558  32.2051 0001337  90.3473 269.7670 15.06415194309194
STARLINK-1265,45406,53.0558,0.000133,15.06419891,546.2295323087028,548.0716588091218,1 45406U 20019AY  25296.57049346  .00009655  00000+0  66581-3 0  9996,2 45406  53.0558  32.1725 0001330  94.9031 265.2110 15.06419891309193
STARLINK-1278,45408,53.0536,0.000147,15.27912979,481.0437703891057,483.06066601925704,1 45408U 20019BA  25296.66671295  .01818171  00000+0  59998-1 0  9996,2 45408  53.0536  60.9508 0001470 103.0130 320.6734 15.27912979  5803
STARLINK-1296,45412,53.0537,0.0001165,15.06391108,546.4320044896967,548.0456170536072,1 45412U 20019BE  25296.57418427 -.00002765  00000+0 -16684-3 0  9999,2 45412  53.0537  32.1507 0001165  73.7377 286.3740 15.06391108309192
STARLINK-1298,45413,53.0502,0.0007445,15.50638475,409.8033656012576,419.9181392546225,1 45413U 20019BF  25296.45792007  .00116280  00000+0  19711-2 0  9995,2 45413  53.0502  11.3829 0007445 270.0551  89.9604 15.50638475309572
STARLINK-1309,45414,53.0551,0.0001325,15.06417505,546.2403065786575,548.0755097293186,1 45414U 20019BG  25296.45623021  .00004982  00000+0  35298-3 0  9999,2 45414  53.0551  32.6841 0001325  91.4157 268.6984 15.06417505309167
STARLINK-1316,45415,53.0561,0.0001347,15.06421913,546.2115631590577,548.0772339678306,1 45415U 20019BH  25296.68106009  .00003123  00000+0  22833-3 0  9994,2 45415  53.0561  31.6721 0001347  96.6896 263.4246 15.06421913309236
STARLINK-1318,45416,53.0536,0.0004056,15.59371638,386.72957148144087,392.2194579421748,1 45416U 20019BJ  25296.48687329  .00056934  00000+0  70955-3 0  9998,2 45416  53.0536   3.2435 0004056  10.6030 349.5067 15.59371638309606
STARLINK-1286,45417,53.0544,0.0001344,15.21656529,499.91907783427087,501.7681478229997,1 45417U 20019BK  25296.66671295  .01890792  00000+0  74860-1 0  9990,2 45417  53.0544  61.2467 0001344  60.9578 268.9889 15.21656529  5802
STARLINK-1308,45419,53.0548,0.0001225,15.0640651,546.343253043533,548.0399585519535,1 45419U 20019BM  25296.64881317  .00002098  00000+0  15967-3 0  9996,2 45419  53.0548  61.8178 0001225  72.4641 287.6482 15.06406510308810
STARLINK-1329,45531,53.0556,0.0001387,15.06434545,546.1451533515801,548.0662156722628,1 45531U 20025A   25296.61749824  .00013044  00000+0  89213-3 0  9999,2 45531  53.0556   1.9606 0001387  89.1680 270.9468 15.06434545304434
STARLINK-1338,45532,53.0564,0.0001594,15.06420109,546.0460366988609,548.253818171328,1 45532U 20025B   25296.56220752  .00006983  00000+0  48699-3 0  9995,2 45532  53.0564   2.2076 0001594 113.9620 246.1536 15.06420109304420
STARLINK-1350,45535,53.0744,0.0001136,15.32006586,469.0483021047594,470.6041593507807,1 45535U 20025E   25296.33110272  .00022917  00000+0  74084-3 0  9990,2 45535  53.0744 316.2824 0001136  62.7257 297.3859 15.32006586305077
STARLINK-1362,45538,53.0557,0.000135,15.06419261,546.2176122902956,548.0874404624165,1 45538U 20025H   25296.46172032  .00014188  00000+0  96899-3 0  9998,2 45538  53.0557   2.3769 0001350  94.0491 266.0652 15.06419261304419
STARLINK-1368,45540,53.0561,0.0001498,15.06420257,546.1120659327571,548.1868817603208,1 45540U 20025K   25296.46636980  .00005358  00000+0  37814-3 0  9999,2 45540  53.0561   2.6387 0001498  97.2063 262.9097 15.06420257304403
STARLINK-1371,45542,53.0546,0.0001398,15.06413664,546.2015221889305,548.1378379366752,1 45542U 20025M   25296.56958755  .00007090  00000+0  49418-3 0  9997,2 45542  53.0546   2.1752 0001398 102.1957 257.9188 15.06413664304427
STARLINK-1372,45543,53.0558,0.000149,15.06414911,546.1339881219401,548.1977283736969,1 45543U 20025N   25296.47374458  .00002406  00000+0  18026-3 0  9997,2 45543  53.0558   2.6065 0001490  91.4920 268.6240 15.06414911303508
STARLINK-1373,45544,53.0571,0.0001599,15.06408969,546.0767105424447,548.2914282204329,1 45544U 20025P   25296.49218244  .00001544  00000+0  12251-3 0  9996,2 45544  53.0571   2.5240 0001599 107.7518 252.3646 15.06408969304419
STARLINK-1294,45551,53.0499,0.0008115,15.58111134,387.6291200331125,398.6188766334071,1 45551U 20025W   25296.28840568  .00075648  00000+0  98320-3 0  9998,2 45551  53.0499 299.6321 0008115  25.6485 334.4927 15.58111134305289
STARLINK-1325,45554,53.0581,0.0002108,15.56610794,396.04598942137545,398.9025871405147,1 45554U 20025Z   25296.25579162  .00107089  00000+0  14652-2 0  9997,2 45554  53.0581 292.7156 0002108  91.0114 269.1138 15.56610794305389
STARLINK-1327,45555,53.0545,0.000147,15.06424814,546.1174925874648,548.1535227047116,1 45555U 20025AA  25296.39817943  .00006126  00000+0  42952-3 0  9990,2 45555  53.0545 342.9440 0001470 101.3617 258.7538 15.06424814304678
STARLINK-1336,45557,53.0269,0.0002236,16.24986597,204.57518219683152,207.5196294631187,1 45557U 20025AC  25296.83912529  .03057879  11942-4  10268-2 0  9997,2 45557  53.0269 274.9492 0002236 190.4247 169.6747 16.24986597305667
STARLINK-1356,45564,53.0541,0.0001423,15.06431966,546.1281253259185,548.0990516434013,1 45564U 20025AK  25296.40187403  .00012871  00000+0  88066-3 0  9993,2 45564  53.0541 342.9264 0001423  81.8763 278.2388 15.06431966304676
STARLINK-1357,45565,53.0635,0.0006121,15.30727357,469.44695527905606,477.8349018191848,1 45565U 20025AL  25296.49565594  .00081721  00000+0  26954-2 0  9991,2 45565  53.0635 328.9550 0006121 307.8244  52.2201 15.30727357304884
